[{"OBJECT_NAME":"STARLINK-34737","OBJECT_ID":"2025-158B","EPOCH":"2025-10-05T03:36:59.988384","MEAN_MOTION":15.0209698,"ECCENTRICITY":0.0003585,"INCLINATION":97.6007,"RA_OF_ASC_NODE":140.797,"ARG_OF_PERICENTER":87.943,"MEAN_ANOMALY":272.2205,"EPHEMERIS_TYPE":0,"CLASSIFICATION_TYPE":"U","NORAD_CAT_ID":64933,"ELEMENT_SET_NO":999,"REV_AT_EPOCH":1195,"BSTAR":0.00099605,"MEAN_MOTION_DOT":0.00013044,"MEAN_MOTION_DDOT":0},{"OBJECT_NAME":"STARLINK-34775","OBJECT_ID":"2025-158C","EPOCH":"2025-10-05T04:04:11.878752","MEAN_MOTION":15.05641047,"ECCENTRICITY":0.0001239,"INCLINATION":97.5981,"RA_OF_ASC_NODE":140.7737,"ARG_OF_PERICENTER":102.2995,"MEAN_ANOMALY":257.8371,"EPHEMERIS_TYPE":0,"CLASSIFICATION_TYPE":"U","NORAD_CAT_ID":64934,"ELEMENT_SET_NO":999,"REV_AT_EPOCH":1195,"BSTAR":0.00047471,"MEAN_MOTION_DOT":6.794e-5,"MEAN_MOTION_DDOT":0},{"OBJECT_NAME":"STARLINK-34726","OBJECT_ID":"2025-158D","EPOCH":"2025-10-05T03:32:18.409056","MEAN_MOTION":15.0567334,"ECCENTRICITY":0.0002228,"INCLINATION":97.6031,"RA_OF_ASC_NODE":140.8053,"ARG_OF_PERICENTER":92.6194,"MEAN_ANOMALY":267.5287,"EPHEMERIS_TYPE":0,"CLASSIFICATION_TYPE":"U","NORAD_CAT_ID":64935,"ELEMENT_SET_NO":999,"REV_AT_EPOCH":1195,"BSTAR":0.00035152,"MEAN_MOTION_DOT":5.018e-5,"MEAN_MOTION_DDOT":0},{"OBJECT_NAME":"STARLINK-34529","OBJECT_ID":"2025-158E","EPOCH":"2025-10-05T04:16:10.643808","MEAN_MOTION":15.05637727,"ECCENTRICITY":0.0003947,"INCLINATION":97.6045,"RA_OF_ASC_NODE":140.7634,"ARG_OF_PERICENTER":74.3725,"MEAN_ANOMALY":285.7937,"EPHEMERIS_TYPE":0,"CLASSIFICATION_TYPE":"U","NORAD_CAT_ID":64936,"ELEMENT_SET_NO":999,"REV_AT_EPOCH":1195,"BSTAR":-0.00010433,"MEAN_MOTION_DOT":-1.566e-5,"MEAN_MOTION_DDOT":0},{"OBJECT_NAME":"STARLINK-34743","OBJECT_ID":"2025-158F","EPOCH":"2025-10-05T04:00:12.250080","MEAN_MOTION":15.05635962,"ECCENTRICITY":0.0002106,"INCLINATION":97.6028,"RA_OF_ASC_NODE":140.7765,"ARG_OF_PERICENTER":90.3641,"MEAN_ANOMALY":269.7827,"EPHEMERIS_TYPE":0,"CLASSIFICATION_TYPE":"U","NORAD_CAT_ID":64937,"ELEMENT_SET_NO":999,"REV_AT_EPOCH":1195,"BSTAR":0.00071678,"MEAN_MOTION_DOT":0.00010293,"MEAN_MOTION_DDOT":0},{"OBJECT_NAME":"STARLINK-34730","OBJECT_ID":"2025-158G","EPOCH":"2025-10-05T04:31:58.768032","MEAN_MOTION":15.04840148,"ECCENTRICITY":0.0001716,"INCLINATION":97.6003,"RA_OF_ASC_NODE":140.8997,"ARG_OF_PERICENTER":81.5438,"MEAN_ANOMALY":278.5983,"EPHEMERIS_TYPE":0,"CLASSIFICATION_TYPE":"U","NORAD_CAT_ID":64938,"ELEMENT_SET_NO":999,"REV_AT_EPOCH":1196,"BSTAR":0.00012927,"MEAN_MOTION_DOT":1.766e-5,"MEAN_MOTION_DDOT":0},{"OBJECT_NAME":"STARLINK-34714","OBJECT_ID":"2025-158H","EPOCH":"2025-10-05T04:44:04.454592","MEAN_MOTION":15.05656362,"ECCENTRICITY":0.0002428,"INCLINATION":97.6015,"RA_OF_ASC_NODE":140.8913,"ARG_OF_PERICENTER":84.5231,"MEAN_ANOMALY":275.6272,"EPHEMERIS_TYPE":0,"CLASSIFICATION_TYPE":"U","NORAD_CAT_ID":64939,"ELEMENT_SET_NO":999,"REV_AT_EPOCH":1180,"BSTAR":0.00058267,"MEAN_MOTION_DOT":8.358e-5,"MEAN_MOTION_DDOT":0},{"OBJECT_NAME":"STARLINK-34755","OBJECT_ID":"2025-158J","EPOCH":"2025-10-05T03:27:29.395872","MEAN_MOTION":15.02050525,"ECCENTRICITY":0.0002182,"INCLINATION":97.6009,"RA_OF_ASC_NODE":142.3705,"ARG_OF_PERICENTER":75.3281,"MEAN_ANOMALY":284.8186,"EPHEMERIS_TYPE":0,"CLASSIFICATION_TYPE":"U","NORAD_CAT_ID":64940,"ELEMENT_SET_NO":999,"REV_AT_EPOCH":1205,"BSTAR":-0.00082915,"MEAN_MOTION_DOT":-0.00010915,"MEAN_MOTION_DDOT":0},{"OBJECT_NAME":"STARLINK-34740","OBJECT_ID":"2025-158K","EPOCH":"2025-10-05T03:28:18.543648","MEAN_MOTION":15.0565321,"ECCENTRICITY":0.0002018,"INCLINATION":97.6032,"RA_OF_ASC_NODE":140.8065,"ARG_OF_PERICENTER":93.1987,"MEAN_ANOMALY":266.947,"EPHEMERIS_TYPE":0,"CLASSIFICATION_TYPE":"U","NORAD_CAT_ID":64941,"ELEMENT_SET_NO":999,"REV_AT_EPOCH":1189,"BSTAR":0.00049864,"MEAN_MOTION_DOT":7.142e-5,"MEAN_MOTION_DDOT":0},{"OBJECT_NAME":"STARLINK-34742","OBJECT_ID":"2025-158L","EPOCH":"2025-10-05T04:36:57.540096","MEAN_MOTION":15.04864397,"ECCENTRICITY":0.0001771,"INCLINATION":97.5988,"RA_OF_ASC_NODE":140.8959,"ARG_OF_PERICENTER":62.2685,"MEAN_ANOMALY":297.8721,"EPHEMERIS_TYPE":0,"CLASSIFICATION_TYPE":"U","NORAD_CAT_ID":64942,"ELEMENT_SET_NO":999,"REV_AT_EPOCH":1196,"BSTAR":-0.00046549,"MEAN_MOTION_DOT":-6.631e-5,"MEAN_MOTION_DDOT":0},{"OBJECT_NAME":"STARLINK-34719","OBJECT_ID":"2025-158M","EPOCH":"2025-10-05T03:36:16.873056","MEAN_MOTION":15.05655972,"ECCENTRICITY":0.000236,"INCLINATION":97.6026,"RA_OF_ASC_NODE":140.8006,"ARG_OF_PERICENTER":93.6705,"MEAN_ANOMALY":266.4792,"EPHEMERIS_TYPE":0,"CLASSIFICATION_TYPE":"U","NORAD_CAT_ID":64943,"ELEMENT_SET_NO":999,"REV_AT_EPOCH":1195,"BSTAR":0.00041579,"MEAN_MOTION_DOT":5.945e-5,"MEAN_MOTION_DDOT":0},{"OBJECT_NAME":"STARLINK-34373","OBJECT_ID":"2025-158N","EPOCH":"2025-10-05T04:20:08.211840","MEAN_MOTION":15.05639614,"ECCENTRICITY":0.0001844,"INCLINATION":97.6027,"RA_OF_ASC_NODE":140.7583,"ARG_OF_PERICENTER":94.9717,"MEAN_ANOMALY":265.172,"EPHEMERIS_TYPE":0,"CLASSIFICATION_TYPE":"U","NORAD_CAT_ID":64944,"ELEMENT_SET_NO":999,"REV_AT_EPOCH":1195,"BSTAR":0.00064675,"MEAN_MOTION_DOT":9.281e-5,"MEAN_MOTION_DDOT":0},{"OBJECT_NAME":"STARLINK-34758","OBJECT_ID":"2025-158P","EPOCH":"2025-10-05T03:48:14.626368","MEAN_MOTION":15.05655517,"ECCENTRICITY":0.0002047,"INCLINATION":97.6036,"RA_OF_ASC_NODE":140.7893,"ARG_OF_PERICENTER":83.1182,"MEAN_ANOMALY":277.0278,"EPHEMERIS_TYPE":0,"CLASSIFICATION_TYPE":"U","NORAD_CAT_ID":64945,"ELEMENT_SET_NO":999,"REV_AT_EPOCH":1195,"BSTAR":0.00051004,"MEAN_MOTION_DOT":7.307e-5,"MEAN_MOTION_DDOT":0},{"OBJECT_NAME":"STARLINK-34753","OBJECT_ID":"2025-158Q","EPOCH":"2025-10-05T03:50:59.707392","MEAN_MOTION":15.04845694,"ECCENTRICITY":0.0002349,"INCLINATION":97.5999,"RA_OF_ASC_NODE":140.9397,"ARG_OF_PERICENTER":95.0596,"MEAN_ANOMALY":265.0898,"EPHEMERIS_TYPE":0,"CLASSIFICATION_TYPE":"U","NORAD_CAT_ID":64946,"ELEMENT_SET_NO":999,"REV_AT_EPOCH":1196,"BSTAR":0.0003527,"MEAN_MOTION_DOT":4.924e-5,"MEAN_MOTION_DDOT":0},{"OBJECT_NAME":"STARLINK-34747","OBJECT_ID":"2025-158R","EPOCH":"2025-10-05T03:56:12.845184","MEAN_MOTION":15.0565508,"ECCENTRICITY":0.0001881,"INCLINATION":97.6033,"RA_OF_ASC_NODE":140.7826,"ARG_OF_PERICENTER":89.9279,"MEAN_ANOMALY":270.2164,"EPHEMERIS_TYPE":0,"CLASSIFICATION_TYPE":"U","NORAD_CAT_ID":64947,"ELEMENT_SET_NO":999,"REV_AT_EPOCH":1195,"BSTAR":0.00048891,"MEAN_MOTION_DOT":7.002e-5,"MEAN_MOTION_DDOT":0},{"OBJECT_NAME":"STARLINK-34630","OBJECT_ID":"2025-158S","EPOCH":"2025-10-05T04:48:03.633984","MEAN_MOTION":15.05654694,"ECCENTRICITY":0.0002454,"INCLINATION":97.6018,"RA_OF_ASC_NODE":140.8867,"ARG_OF_PERICENTER":88.8639,"MEAN_ANOMALY":271.2868,"EPHEMERIS_TYPE":0,"CLASSIFICATION_TYPE":"U","NORAD_CAT_ID":64948,"ELEMENT_SET_NO":999,"REV_AT_EPOCH":1196,"BSTAR":0.00043022,"MEAN_MOTION_DOT":6.153e-5,"MEAN_MOTION_DDOT":0}]
