STARLINK-34737          
1 64933U 25158B   25278.15069431  .00013044  00000+0  99605-3 0  9992
2 64933  97.6007 140.7970 0003585  87.9430 272.2205 15.02096980 11952
STARLINK-34775          
1 64934U 25158C   25278.16958193  .00006794  00000+0  47471-3 0  9994
2 64934  97.5981 140.7737 0001239 102.2995 257.8371 15.05641047 11951
STARLINK-34726          
1 64935U 25158D   25278.14743529  .00005018  00000+0  35152-3 0  9999
2 64935  97.6031 140.8053 0002228  92.6194 267.5287 15.05673340 11958
STARLINK-34529          
1 64936U 25158E   25278.17790097 -.00001566  00000+0 -10433-3 0  9996
2 64936  97.6045 140.7634 0003947  74.3725 285.7937 15.05637727 11957
STARLINK-34743          
1 64937U 25158F   25278.16680845  .00010293  00000+0  71678-3 0  9998
2 64937  97.6028 140.7765 0002106  90.3641 269.7827 15.05635962 11954
STARLINK-34730          
1 64938U 25158G   25278.18887463  .00001766  00000+0  12927-3 0  9993
2 64938  97.6003 140.8997 0001716  81.5438 278.5983 15.04840148 11963
STARLINK-34714          
1 64939U 25158H   25278.19727378  .00008358  00000+0  58267-3 0  9994
2 64939  97.6015 140.8913 0002428  84.5231 275.6272 15.05656362 11806
STARLINK-34755          
1 64940U 25158J   25278.14409023 -.00010915  00000+0 -82915-3 0  9996
2 64940  97.6009 142.3705 0002182  75.3281 284.8186 15.02050525 12057
STARLINK-34740          
1 64941U 25158K   25278.14465907  .00007142  00000+0  49864-3 0  9992
2 64941  97.6032 140.8065 0002018  93.1987 266.9470 15.05653210 11896
STARLINK-34742          
1 64942U 25158L   25278.19233264 -.00006631  00000+0 -46549-3 0  9998
2 64942  97.5988 140.8959 0001771  62.2685 297.8721 15.04864397 11964
STARLINK-34719          
1 64943U 25158M   25278.15019529  .00005945  00000+0  41579-3 0  9994
2 64943  97.6026 140.8006 0002360  93.6705 266.4792 15.05655972 11955
STARLINK-34373          
1 64944U 25158N   25278.18065060  .00009281  00000+0  64675-3 0  9998
2 64944  97.6027 140.7583 0001844  94.9717 265.1720 15.05639614 11951
STARLINK-34758          
1 64945U 25158P   25278.15850262  .00007307  00000+0  51004-3 0  9991
2 64945  97.6036 140.7893 0002047  83.1182 277.0278 15.05655517 11958
STARLINK-34753          
1 64946U 25158Q   25278.16041328  .00004924  00000+0  35270-3 0  9997
2 64946  97.5999 140.9397 0002349  95.0596 265.0898 15.04845694 11965
STARLINK-34747          
1 64947U 25158R   25278.16403756  .00007002  00000+0  48891-3 0  9998
2 64947  97.6033 140.7826 0001881  89.9279 270.2164 15.05655080 11953
STARLINK-34630          
1 64948U 25158S   25278.20004206  .00006153  00000+0  43022-3 0  9998
2 64948  97.6018 140.8867 0002454  88.8639 271.2868 15.05654694 11961
